ONEWEB-0541             
1 55142U 23004C   25219.60256501  .00000424  00000+0  11597-2 0  9994
2 55142  87.8799  83.5462 0001727  81.4416 278.6908 13.11419672124840
ONEWEB-0543             
1 55143U 23004D   25219.49035266 -.00000014  00000+0 -67633-4 0  9996
2 55143  87.9114  37.8244 0002049  86.2054 273.9312 13.18685519128351
ONEWEB-0544             
1 55144U 23004E   25219.55962934  .00000035  00000+0  56464-4 0  9996
2 55144  87.9116  37.8007 0001825  83.3343 276.7997 13.18685837128365
ONEWEB-0560             
1 55145U 23004F   25219.55303754  .00000012  00000+0 -13766-5 0  9991
2 55145  87.9122  37.7777 0001803  81.1874 278.9462 13.18685713128372
ONEWEB-0565             
1 55146U 23004G   25219.54643836  .00000012  00000+0 -12131-5 0  9994
2 55146  87.9114  37.8360 0001276  85.2069 274.9209 13.18687155128364
ONEWEB-0567             
1 55147U 23004H   25219.53984313  .00000058  00000+0  11440-3 0  9991
2 55147  87.9120  37.7952 0001511  80.8577 279.2726 13.18686963128363
ONEWEB-0569             
1 55148U 23004J   25219.46114489  .00000138  00000+0  34308-3 0  9990
2 55148  87.8978  22.5257 0001630  59.4678 300.6612 13.13469655128994
ONEWEB-0570             
1 55149U 23004K   25219.52993935  .00000089  00000+0  19260-3 0  9994
2 55149  87.9115  37.7991 0001386 105.8119 254.3167 13.18685267128350
ONEWEB-0571             
1 55150U 23004L   25219.52333786  .00000087  00000+0  18718-3 0  9993
2 55150  87.9112  37.8064 0001026  47.3858 312.7360 13.18687535128367
ONEWEB-0572             
1 55151U 23004M   25219.59920603  .00000098  00000+0  21878-3 0  9994
2 55151  87.9035  68.2740 0001562  85.8237 274.3073 13.17648302126184
ONEWEB-0573             
1 55152U 23004N   25219.51675342  .00000059  00000+0  11565-3 0  9993
2 55152  87.9112  37.8145 0000909  86.7152 273.4085 13.18687525128357
ONEWEB-0588             
1 55153U 23004P   25219.51015747  .00000060  00000+0  12025-3 0  9995
2 55153  87.9119  37.8004 0001372  99.3009 260.8278 13.18686973128355
ONEWEB-0598             
1 55154U 23004Q   25219.58051908 -.00000455  00000+0 -13186-2 0  9990
2 55154  87.8794  83.5865 0001538  59.9665 300.1615 13.11417672124799
ONEWEB-0599             
1 55155U 23004R   25219.56039802  .00000058  00000+0  11561-3 0  9991
2 55155  87.9033  68.2862 0001800  78.6882 281.4451 13.17649698126180
ONEWEB-0614             
1 55156U 23004S   25219.57543316 -.00000558  00000+0 -16100-2 0  9993
2 55156  87.8795  83.5972 0001686  92.9898 267.1423 13.11416580124730
ONEWEB-0616             
1 55157U 23004T   25219.60258540  .00000063  00000+0  12988-3 0  9990
2 55157  87.9035  68.2683 0002678  72.0137 288.1287 13.17648192126404
ONEWEB-0617             
1 55158U 23004U   25219.56356718 -.00000313  00000+0 -91905-3 0  9998
2 55158  87.8789  83.5783 0001440  89.3926 270.7367 13.11413943124754
