[{"OBJECT_NAME":"ONEWEB-0541","OBJECT_ID":"2023-004C","EPOCH":"2025-08-07T14:27:41.616864","MEAN_MOTION":13.11419672,"ECCENTRICITY":0.0001727,"INCLINATION":87.8799,"RA_OF_ASC_NODE":83.5462,"ARG_OF_PERICENTER":81.4416,"MEAN_ANOMALY":278.6908,"EPHEMERIS_TYPE":0,"CLASSIFICATION_TYPE":"U","NORAD_CAT_ID":55142,"ELEMENT_SET_NO":999,"REV_AT_EPOCH":12484,"BSTAR":0.0011596845,"MEAN_MOTION_DOT":4.24e-6,"MEAN_MOTION_DDOT":0},{"OBJECT_NAME":"ONEWEB-0543","OBJECT_ID":"2023-004D","EPOCH":"2025-08-07T11:46:06.469824","MEAN_MOTION":13.18685519,"ECCENTRICITY":0.00020497,"INCLINATION":87.9114,"RA_OF_ASC_NODE":37.8244,"ARG_OF_PERICENTER":86.2054,"MEAN_ANOMALY":273.9312,"EPHEMERIS_TYPE":0,"CLASSIFICATION_TYPE":"U","NORAD_CAT_ID":55143,"ELEMENT_SET_NO":999,"REV_AT_EPOCH":12835,"BSTAR":-6.7633305e-5,"MEAN_MOTION_DOT":-1.4e-7,"MEAN_MOTION_DDOT":0},{"OBJECT_NAME":"ONEWEB-0544","OBJECT_ID":"2023-004E","EPOCH":"2025-08-07T13:25:51.974976","MEAN_MOTION":13.18685837,"ECCENTRICITY":0.00018259,"INCLINATION":87.9116,"RA_OF_ASC_NODE":37.8007,"ARG_OF_PERICENTER":83.3343,"MEAN_ANOMALY":276.7997,"EPHEMERIS_TYPE":0,"CLASSIFICATION_TYPE":"U","NORAD_CAT_ID":55144,"ELEMENT_SET_NO":999,"REV_AT_EPOCH":12836,"BSTAR":5.6463677e-5,"MEAN_MOTION_DOT":3.5e-7,"MEAN_MOTION_DDOT":0},{"OBJECT_NAME":"ONEWEB-0560","OBJECT_ID":"2023-004F","EPOCH":"2025-08-07T13:16:22.443456","MEAN_MOTION":13.18685713,"ECCENTRICITY":0.00018034,"INCLINATION":87.9122,"RA_OF_ASC_NODE":37.7777,"ARG_OF_PERICENTER":81.1874,"MEAN_ANOMALY":278.9462,"EPHEMERIS_TYPE":0,"CLASSIFICATION_TYPE":"U","NORAD_CAT_ID":55145,"ELEMENT_SET_NO":999,"REV_AT_EPOCH":12837,"BSTAR":-1.376558e-6,"MEAN_MOTION_DOT":1.2e-7,"MEAN_MOTION_DDOT":0},{"OBJECT_NAME":"ONEWEB-0565","OBJECT_ID":"2023-004G","EPOCH":"2025-08-07T13:06:52.274304","MEAN_MOTION":13.18687155,"ECCENTRICITY":0.0001276,"INCLINATION":87.9114,"RA_OF_ASC_NODE":37.836,"ARG_OF_PERICENTER":85.2069,"MEAN_ANOMALY":274.9209,"EPHEMERIS_TYPE":0,"CLASSIFICATION_TYPE":"U","NORAD_CAT_ID":55146,"ELEMENT_SET_NO":999,"REV_AT_EPOCH":12836,"BSTAR":-1.213091e-6,"MEAN_MOTION_DOT":1.2e-7,"MEAN_MOTION_DDOT":0},{"OBJECT_NAME":"ONEWEB-0567","OBJECT_ID":"2023-004H","EPOCH":"2025-08-07T12:57:22.446432","MEAN_MOTION":13.18686963,"ECCENTRICITY":0.00015112,"INCLINATION":87.912,"RA_OF_ASC_NODE":37.7952,"ARG_OF_PERICENTER":80.8577,"MEAN_ANOMALY":279.2726,"EPHEMERIS_TYPE":0,"CLASSIFICATION_TYPE":"U","NORAD_CAT_ID":55147,"ELEMENT_SET_NO":999,"REV_AT_EPOCH":12836,"BSTAR":0.00011439522,"MEAN_MOTION_DOT":5.8e-7,"MEAN_MOTION_DDOT":0},{"OBJECT_NAME":"ONEWEB-0569","OBJECT_ID":"2023-004J","EPOCH":"2025-08-07T11:04:02.918496","MEAN_MOTION":13.13469655,"ECCENTRICITY":0.00016305,"INCLINATION":87.8978,"RA_OF_ASC_NODE":22.5257,"ARG_OF_PERICENTER":59.4678,"MEAN_ANOMALY":300.6612,"EPHEMERIS_TYPE":0,"CLASSIFICATION_TYPE":"U","NORAD_CAT_ID":55148,"ELEMENT_SET_NO":999,"REV_AT_EPOCH":12899,"BSTAR":0.00034308057,"MEAN_MOTION_DOT":1.38e-6,"MEAN_MOTION_DDOT":0},{"OBJECT_NAME":"ONEWEB-0570","OBJECT_ID":"2023-004K","EPOCH":"2025-08-07T12:43:06.759840","MEAN_MOTION":13.18685267,"ECCENTRICITY":0.00013862,"INCLINATION":87.9115,"RA_OF_ASC_NODE":37.7991,"ARG_OF_PERICENTER":105.8119,"MEAN_ANOMALY":254.3167,"EPHEMERIS_TYPE":0,"CLASSIFICATION_TYPE":"U","NORAD_CAT_ID":55149,"ELEMENT_SET_NO":999,"REV_AT_EPOCH":12835,"BSTAR":0.000192602,"MEAN_MOTION_DOT":8.9e-7,"MEAN_MOTION_DDOT":0},{"OBJECT_NAME":"ONEWEB-0571","OBJECT_ID":"2023-004L","EPOCH":"2025-08-07T12:33:36.391104","MEAN_MOTION":13.18687535,"ECCENTRICITY":0.00010262,"INCLINATION":87.9112,"RA_OF_ASC_NODE":37.8064,"ARG_OF_PERICENTER":47.3858,"MEAN_ANOMALY":312.736,"EPHEMERIS_TYPE":0,"CLASSIFICATION_TYPE":"U","NORAD_CAT_ID":55150,"ELEMENT_SET_NO":999,"REV_AT_EPOCH":12836,"BSTAR":0.0001871763,"MEAN_MOTION_DOT":8.7e-7,"MEAN_MOTION_DDOT":0},{"OBJECT_NAME":"ONEWEB-0572","OBJECT_ID":"2023-004M","EPOCH":"2025-08-07T14:22:51.400992","MEAN_MOTION":13.17648302,"ECCENTRICITY":0.00015627,"INCLINATION":87.9035,"RA_OF_ASC_NODE":68.274,"ARG_OF_PERICENTER":85.8237,"MEAN_ANOMALY":274.3073,"EPHEMERIS_TYPE":0,"CLASSIFICATION_TYPE":"U","NORAD_CAT_ID":55151,"ELEMENT_SET_NO":999,"REV_AT_EPOCH":12618,"BSTAR":0.00021878278,"MEAN_MOTION_DOT":9.8e-7,"MEAN_MOTION_DDOT":0},{"OBJECT_NAME":"ONEWEB-0573","OBJECT_ID":"2023-004N","EPOCH":"2025-08-07T12:24:07.495488","MEAN_MOTION":13.18687525,"ECCENTRICITY":9.095e-5,"INCLINATION":87.9112,"RA_OF_ASC_NODE":37.8145,"ARG_OF_PERICENTER":86.7152,"MEAN_ANOMALY":273.4085,"EPHEMERIS_TYPE":0,"CLASSIFICATION_TYPE":"U","NORAD_CAT_ID":55152,"ELEMENT_SET_NO":999,"REV_AT_EPOCH":12835,"BSTAR":0.00011565035,"MEAN_MOTION_DOT":5.9e-7,"MEAN_MOTION_DDOT":0},{"OBJECT_NAME":"ONEWEB-0588","OBJECT_ID":"2023-004P","EPOCH":"2025-08-07T12:14:37.605408","MEAN_MOTION":13.18686973,"ECCENTRICITY":0.00013727,"INCLINATION":87.9119,"RA_OF_ASC_NODE":37.8004,"ARG_OF_PERICENTER":99.3009,"MEAN_ANOMALY":260.8278,"EPHEMERIS_TYPE":0,"CLASSIFICATION_TYPE":"U","NORAD_CAT_ID":55153,"ELEMENT_SET_NO":999,"REV_AT_EPOCH":12835,"BSTAR":0.00012024513,"MEAN_MOTION_DOT":6.0e-7,"MEAN_MOTION_DDOT":0},{"OBJECT_NAME":"ONEWEB-0598","OBJECT_ID":"2023-004Q","EPOCH":"2025-08-07T13:55:56.848512","MEAN_MOTION":13.11417672,"ECCENTRICITY":0.00015387,"INCLINATION":87.8794,"RA_OF_ASC_NODE":83.5865,"ARG_OF_PERICENTER":59.9665,"MEAN_ANOMALY":300.1615,"EPHEMERIS_TYPE":0,"CLASSIFICATION_TYPE":"U","NORAD_CAT_ID":55154,"ELEMENT_SET_NO":999,"REV_AT_EPOCH":12479,"BSTAR":-0.0013185656,"MEAN_MOTION_DOT":-4.55e-6,"MEAN_MOTION_DDOT":0},{"OBJECT_NAME":"ONEWEB-0599","OBJECT_ID":"2023-004R","EPOCH":"2025-08-07T13:26:58.388928","MEAN_MOTION":13.17649698,"ECCENTRICITY":0.00018004,"INCLINATION":87.9033,"RA_OF_ASC_NODE":68.2862,"ARG_OF_PERICENTER":78.6882,"MEAN_ANOMALY":281.4451,"EPHEMERIS_TYPE":0,"CLASSIFICATION_TYPE":"U","NORAD_CAT_ID":55155,"ELEMENT_SET_NO":999,"REV_AT_EPOCH":12618,"BSTAR":0.00011560816,"MEAN_MOTION_DOT":5.8e-7,"MEAN_MOTION_DDOT":0},{"OBJECT_NAME":"ONEWEB-0614","OBJECT_ID":"2023-004S","EPOCH":"2025-08-07T13:48:37.425024","MEAN_MOTION":13.1141658,"ECCENTRICITY":0.0001686,"INCLINATION":87.8795,"RA_OF_ASC_NODE":83.5972,"ARG_OF_PERICENTER":92.9898,"MEAN_ANOMALY":267.1423,"EPHEMERIS_TYPE":0,"CLASSIFICATION_TYPE":"U","NORAD_CAT_ID":55156,"ELEMENT_SET_NO":999,"REV_AT_EPOCH":12473,"BSTAR":-0.0016100308,"MEAN_MOTION_DOT":-5.58e-6,"MEAN_MOTION_DDOT":0},{"OBJECT_NAME":"ONEWEB-0616","OBJECT_ID":"2023-004T","EPOCH":"2025-08-07T14:27:43.378560","MEAN_MOTION":13.17648192,"ECCENTRICITY":0.00026788,"INCLINATION":87.9035,"RA_OF_ASC_NODE":68.2683,"ARG_OF_PERICENTER":72.0137,"MEAN_ANOMALY":288.1287,"EPHEMERIS_TYPE":0,"CLASSIFICATION_TYPE":"U","NORAD_CAT_ID":55157,"ELEMENT_SET_NO":999,"REV_AT_EPOCH":12640,"BSTAR":0.00012987841,"MEAN_MOTION_DOT":6.3e-7,"MEAN_MOTION_DDOT":0},{"OBJECT_NAME":"ONEWEB-0617","OBJECT_ID":"2023-004U","EPOCH":"2025-08-07T13:31:32.204352","MEAN_MOTION":13.11413943,"ECCENTRICITY":0.00014404,"INCLINATION":87.8789,"RA_OF_ASC_NODE":83.5783,"ARG_OF_PERICENTER":89.3926,"MEAN_ANOMALY":270.7367,"EPHEMERIS_TYPE":0,"CLASSIFICATION_TYPE":"U","NORAD_CAT_ID":55158,"ELEMENT_SET_NO":999,"REV_AT_EPOCH":12475,"BSTAR":-0.00091904605,"MEAN_MOTION_DOT":-3.13e-6,"MEAN_MOTION_DDOT":0}]
